HTV-X1                  
1 66174U 25241A   25320.35281829  .00017169  00000+0  31117-3 0  9997
2 66174  51.6328 273.0879 0004158  76.5981 283.5471 15.49717811  1455
GAOFEN-14 02            
1 66175U 25242A   25318.46556247  .00014152  00000+0  52318-3 0  9992
2 66175  97.4386  30.6022 0011017 193.9078 166.1859 15.27766001  2951
CZ-3B R/B               
1 66176U 25242B   25309.65934494  .00029904  00000+0  58815-3 0  9997
2 66176  97.4571  21.8726 0103778   5.1082 355.1197 15.41457457  1622
STARLINK-35352          
1 66177U 25243A   25320.83335647 -.02010499  00000+0 -24051-1 0  9993
2 66177  53.1594  50.8232 0001186  49.6470  27.6926 15.63725562  4426
STARLINK-35363          
1 66178U 25243B   25320.83335647 -.02000767  00000+0 -23923-1 0  9998
2 66178  53.1594  50.8305 0001216  47.7878  25.7172 15.63720180  4482
STARLINK-35346          
1 66179U 25243C   25320.83335647 -.02015123  00000+0 -24109-1 0  9998
2 66179  53.1593  50.8348 0001220  49.6702  21.9158 15.63729898  4422
STARLINK-35335          
1 66180U 25243D   25320.83335647 -.02003368  00000+0 -23956-1 0  9997
2 66180  53.1590  50.8394 0001232  47.1864  22.4834 15.63722386  4429
STARLINK-35342          
1 66181U 25243E   25320.83335647 -.02017568  00000+0 -24143-1 0  9994
2 66181  53.1589  50.8436 0001147  53.6741  14.0798 15.63730856  4423
STARLINK-35333          
1 66182U 25243F   25320.83335647 -.02017647  00000+0 -24144-1 0  9994
2 66182  53.1590  50.8469 0001189  52.3091  13.5291 15.63730129  4371
STARLINK-35310          
1 66183U 25243G   25320.83335647 -.02014490  00000+0 -24102-1 0  9992
2 66183  53.1592  50.8517 0001203  50.4228  13.4965 15.63729332  4489
STARLINK-35317          
1 66184U 25243H   25320.83335647 -.02016705  00000+0 -24131-1 0  9996
2 66184  53.1591  50.8922 0001195  44.4228   0.3278 15.63730166  4425
STARLINK-35377          
1 66185U 25243J   25320.83335647 -.02016439  00000+0 -24129-1 0  9998
2 66185  53.1594  50.9004 0001120  44.4637 356.4550 15.63728933  4486
